[
    {
        "Altitude(m)": 604234.6193625701,
        "Argument of Periapsis(deg)": 0.0,
        "Eccentricity": 0.0,
        "Inclination(deg)": 60.0,
        "Latitude(deg)": 14.117293548297596,
        "Longitude(deg)": 46.72730932168851,
        "Mean Anomaly(deg)": -196.36359999999996,
        "RAAN(deg)": 335.0,
        "Satellite Name": "Test1 1484",
        "Satellite Number": 1484,
        "Semi-Major Axis(m)": 6980739.136638005,
        "Time(s)": 0
    },
    {
        "Altitude(m)": 604223.447638566,
        "Argument of Periapsis(deg)": 0.00010418945913296404,
        "Eccentricity": 0.0,
        "Inclination(deg)": 60.0,
        "Latitude(deg)": 13.582430282087909,
        "Longitude(deg)": 47.01421927627782,
        "Mean Anomaly(deg)": -195.74349385453812,
        "RAAN(deg)": 334.99957995086027,
        "Satellite Name": "Test1 1484",
        "Satellite Number": 1484,
        "Semi-Major Axis(m)": 6980739.136638005,
        "Time(s)": 10
    }
]